[{"OBJECT_NAME":"CHUANGXIN 1-04 (CX-1-04)","OBJECT_ID":"2014-051B","EPOCH":"2026-03-09T23:17:42.810432","MEAN_MOTION":14.30385817,"ECCENTRICITY":0.00233905,"INCLINATION":98.7069,"RA_OF_ASC_NODE":70.7142,"ARG_OF_PERICENTER":104.1594,"MEAN_ANOMALY":256.2189,"EPHEMERIS_TYPE":0,"CLASSIFICATION_TYPE":"U","NORAD_CAT_ID":40137,"ELEMENT_SET_NO":999,"REV_AT_EPOCH":60036,"BSTAR":5.5260038e-5,"MEAN_MOTION_DOT":9.9e-7,"MEAN_MOTION_DDOT":0},{"OBJECT_NAME":"COSMOS 1275 DEB","OBJECT_ID":"1981-053FU","EPOCH":"2026-03-09T23:44:18.874176","MEAN_MOTION":14.35973966,"ECCENTRICITY":0.00109938,"INCLINATION":82.8445,"RA_OF_ASC_NODE":53.2952,"ARG_OF_PERICENTER":224.3337,"MEAN_ANOMALY":190.2183,"EPHEMERIS_TYPE":0,"CLASSIFICATION_TYPE":"U","NORAD_CAT_ID":13472,"ELEMENT_SET_NO":999,"REV_AT_EPOCH":23514,"BSTAR":0.0023172077,"MEAN_MOTION_DOT":6.75e-5,"MEAN_MOTION_DDOT":0}]
